STARLINK-33765          
1 63473U 25070P   26068.54902246  .00024286  00000+0  88912-3 0  9993
2 63473  42.9956 260.6993 0000930 247.9852 112.0901 15.27581282 52950
KUIPER-00209            
1 67776U 26030N   26068.61786546  .00035298  00000+0  11963-2 0  9997
2 67776  51.8838 220.0775 0012191  59.1967 301.0215 15.30161950  5077
